{"type":"FeatureCollection","features":[{"type":"Feature","id":"AF_tr_000001-P0001","geometry":{"type":"Point","coordinates":[38.5436936466877,48.53114010887661]},"properties":{"id":"AF_tr_000001-P0001","scene_id":"AF_tr_000001","row":1,"col":219,"model_version":"af-v001","source":"af_final_model_in_sample","confidence":0.9966,"acquired_at":"2019-04-01T09:42:00Z","satellite":"SNPP","instrument":"VIIRS","frp_mw":null}},{"type":"Feature","id":"AF_tr_000001-P0002","geometry":{"type":"Point","coordinates":[38.17075953218783,48.35025028094257]},"properties":{"id":"AF_tr_000001-P0002","scene_id":"AF_tr_000001","row":54,"col":145,"model_version":"af-v001","source":"af_final_model_in_sample","confidence":0.9998,"acquired_at":"2019-04-01T09:42:00Z","satellite":"SNPP","instrument":"VIIRS","frp_mw":null}},{"type":"Feature","id":"AF_tr_000001-P0003","geometry":{"type":"Point","coordinates":[38.17081426256586,48.34687689508077]},"properties":{"id":"AF_tr_000001-P0003","scene_id":"AF_tr_000001","row":55,"col":145,"model_version":"af-v001","source":"af_final_model_in_sample","confidence":0.9998,"acquired_at":"2019-04-01T09:42:00Z","satellite":"SNPP","instrument":"VIIRS","frp_mw":null}},{"type":"Feature","id":"AF_tr_000001-P0004","geometry":{"type":"Point","coordinates":[38.17086898285477,48.34350350718416]},"properties":{"id":"AF_tr_000001-P0004","scene_id":"AF_tr_000001","row":56,"col":145,"model_version":"af-v001","source":"af_final_model_in_sample","confidence":0.9999,"acquired_at":"2019-04-01T09:42:00Z","satellite":"SNPP","instrument":"VIIRS","frp_mw":null}},{"type":"Feature","id":"AF_tr_000001-P0005","geometry":{"type":"Point","coordinates":[37.938598440623736,48.31797797091351]},"properties":{"id":"AF_tr_000001-P0005","scene_id":"AF_tr_000001","row":63,"col":99,"model_version":"af-v001","source":"af_final_model_in_sample","confidence":0.9995,"acquired_at":"2019-04-01T09:42:00Z","satellite":"SNPP","instrument":"VIIRS","frp_mw":null}},{"type":"Feature","id":"AF_tr_000001-P0006","geometry":{"type":"Point","coordinates":[38.475504141179016,48.24745613169941]},"properties":{"id":"AF_tr_000001-P0006","scene_id":"AF_tr_000001","row":85,"col":205,"model_version":"af-v001","source":"af_final_model_in_sample","confidence":0.9999,"acquired_at":"2019-04-01T09:42:00Z","satellite":"SNPP","instrument":"VIIRS","frp_mw":null}},{"type":"Feature","id":"AF_tr_000001-P0007","geometry":{"type":"Point","coordinates":[38.48055524901287,48.247479061037204]},"properties":{"id":"AF_tr_000001-P0007","scene_id":"AF_tr_000001","row":85,"col":206,"model_version":"af-v001","source":"af_final_model_in_sample","confidence":0.9999,"acquired_at":"2019-04-01T09:42:00Z","satellite":"SNPP","instrument":"VIIRS","frp_mw":null}},{"type":"Feature","id":"AF_tr_000001-P0008","geometry":{"type":"Point","coordinates":[38.647360924506714,48.2312425552779]},"properties":{"id":"AF_tr_000001-P0008","scene_id":"AF_tr_000001","row":90,"col":239,"model_version":"af-v001","source":"af_final_model_in_sample","confidence":0.9995,"acquired_at":"2019-04-01T09:42:00Z","satellite":"SNPP","instrument":"VIIRS","frp_mw":null}},{"type":"Feature","id":"AF_tr_000001-P0009","geometry":{"type":"Point","coordinates":[37.99169682957915,48.190249307308264]},"properties":{"id":"AF_tr_000001-P0009","scene_id":"AF_tr_000001","row":101,"col":109,"model_version":"af-v001","source":"af_final_model_in_sample","confidence":0.9998,"acquired_at":"2019-04-01T09:42:00Z","satellite":"SNPP","instrument":"VIIRS","frp_mw":null}},{"type":"Feature","id":"AF_tr_000001-P0010","geometry":{"type":"Point","coordinates":[37.99674174532748,48.19029344907955]},"properties":{"id":"AF_tr_000001-P0010","scene_id":"AF_tr_000001","row":101,"col":110,"model_version":"af-v001","source":"af_final_model_in_sample","confidence":0.9998,"acquired_at":"2019-04-01T09:42:00Z","satellite":"SNPP","instrument":"VIIRS","frp_mw":null}},{"type":"Feature","id":"AF_tr_000001-P0011","geometry":{"type":"Point","coordinates":[38.127913627753024,48.191363434193775]},"properties":{"id":"AF_tr_000001-P0011","scene_id":"AF_tr_000001","row":101,"col":136,"model_version":"af-v001","source":"af_final_model_in_sample","confidence":0.9997,"acquired_at":"2019-04-01T09:42:00Z","satellite":"SNPP","instrument":"VIIRS","frp_mw":null}},{"type":"Feature","id":"AF_tr_000001-P0012","geometry":{"type":"Point","coordinates":[37.99680758945565,48.186920132982195]},"properties":{"id":"AF_tr_000001-P0012","scene_id":"AF_tr_000001","row":102,"col":110,"model_version":"af-v001","source":"af_final_model_in_sample","confidence":0.9998,"acquired_at":"2019-04-01T09:42:00Z","satellite":"SNPP","instrument":"VIIRS","frp_mw":null}},{"type":"Feature","id":"AF_tr_000001-P0013","geometry":{"type":"Point","coordinates":[37.93641298104067,48.17962937616921]},"properties":{"id":"AF_tr_000001-P0013","scene_id":"AF_tr_000001","row":104,"col":98,"model_version":"af-v001","source":"af_final_model_in_sample","confidence":0.9998,"acquired_at":"2019-04-01T09:42:00Z","satellite":"SNPP","instrument":"VIIRS","frp_mw":null}},{"type":"Feature","id":"AF_tr_000001-P0014","geometry":{"type":"Point","coordinates":[37.94145676694212,48.17967593636393]},"properties":{"id":"AF_tr_000001-P0014","scene_id":"AF_tr_000001","row":104,"col":99,"model_version":"af-v001","source":"af_final_model_in_sample","confidence":0.9998,"acquired_at":"2019-04-01T09:42:00Z","satellite":"SNPP","instrument":"VIIRS","frp_mw":null}},{"type":"Feature","id":"AF_tr_000001-P0015","geometry":{"type":"Point","coordinates":[37.69945588814133,48.173818514260105]},"properties":{"id":"AF_tr_000001-P0015","scene_id":"AF_tr_000001","row":105,"col":51,"model_version":"af-v001","source":"af_final_model_in_sample","confidence":0.9981,"acquired_at":"2019-04-01T09:42:00Z","satellite":"SNPP","instrument":"VIIRS","frp_mw":null}},{"type":"Feature","id":"AF_tr_000001-P0016","geometry":{"type":"Point","coordinates":[37.93648275802694,48.17625611793496]},"properties":{"id":"AF_tr_000001-P0016","scene_id":"AF_tr_000001","row":105,"col":98,"model_version":"af-v001","source":"af_final_model_in_sample","confidence":0.9998,"acquired_at":"2019-04-01T09:42:00Z","satellite":"SNPP","instrument":"VIIRS","frp_mw":null}},{"type":"Feature","id":"AF_tr_000001-P0017","geometry":{"type":"Point","coordinates":[37.70458364694625,48.17050248543254]},"properties":{"id":"AF_tr_000001-P0017","scene_id":"AF_tr_000001","row":106,"col":52,"model_version":"af-v001","source":"af_final_model_in_sample","confidence":0.9994,"acquired_at":"2019-04-01T09:42:00Z","satellite":"SNPP","instrument":"VIIRS","frp_mw":null}},{"type":"Feature","id":"AF_tr_000001-P0018","geometry":{"type":"Point","coordinates":[37.70466860363345,48.167129503178614]},"properties":{"id":"AF_tr_000001-P0018","scene_id":"AF_tr_000001","row":107,"col":52,"model_version":"af-v001","source":"af_final_model_in_sample","confidence":0.9994,"acquired_at":"2019-04-01T09:42:00Z","satellite":"SNPP","instrument":"VIIRS","frp_mw":null}},{"type":"Feature","id":"AF_tr_000001-P0019","geometry":{"type":"Point","coordinates":[37.906365781894195,48.1692256878401]},"properties":{"id":"AF_tr_000001-P0019","scene_id":"AF_tr_000001","row":107,"col":92,"model_version":"af-v001","source":"af_final_model_in_sample","confidence":0.9963,"acquired_at":"2019-04-01T09:42:00Z","satellite":"SNPP","instrument":"VIIRS","frp_mw":null}},{"type":"Feature","id":"AF_tr_000001-P0020","geometry":{"type":"Point","coordinates":[37.911408497883,48.16927355869957]},"properties":{"id":"AF_tr_000001-P0020","scene_id":"AF_tr_000001","row":107,"col":93,"model_version":"af-v001","source":"af_final_model_in_sample","confidence":0.9999,"acquired_at":"2019-04-01T09:42:00Z","satellite":"SNPP","instrument":"VIIRS","frp_mw":null}},{"type":"Feature","id":"AF_tr_000001-P0021","geometry":{"type":"Point","coordinates":[37.91645122699868,48.16932120837914]},"properties":{"id":"AF_tr_000001-P0021","scene_id":"AF_tr_000001","row":107,"col":94,"model_version":"af-v001","source":"af_final_model_in_sample","confidence":0.995,"acquired_at":"2019-04-01T09:42:00Z","satellite":"SNPP","instrument":"VIIRS","frp_mw":null}},{"type":"Feature","id":"AF_tr_000001-P0022","geometry":{"type":"Point","coordinates":[37.92653672436765,48.16941584419284]},"properties":{"id":"AF_tr_000001-P0022","scene_id":"AF_tr_000001","row":107,"col":96,"model_version":"af-v001","source":"af_final_model_in_sample","confidence":0.9979,"acquired_at":"2019-04-01T09:42:00Z","satellite":"SNPP","instrument":"VIIRS","frp_mw":null}},{"type":"Feature","id":"AF_tr_000001-P0023","geometry":{"type":"Point","coordinates":[37.89635277246707,48.1657560629109]},"properties":{"id":"AF_tr_000001-P0023","scene_id":"AF_tr_000001","row":108,"col":90,"model_version":"af-v001","source":"af_final_model_in_sample","confidence":0.9864,"acquired_at":"2019-04-01T09:42:00Z","satellite":"SNPP","instrument":"VIIRS","frp_mw":null}},{"type":"Feature","id":"AF_tr_000001-P0024","geometry":{"type":"Point","coordinates":[37.90643750373474,48.16585245681905]},"properties":{"id":"AF_tr_000001-P0024","scene_id":"AF_tr_000001","row":108,"col":92,"model_version":"af-v001","source":"af_final_model_in_sample","confidence":0.9971,"acquired_at":"2019-04-01T09:42:00Z","satellite":"SNPP","instrument":"VIIRS","frp_mw":null}},{"type":"Feature","id":"AF_tr_000001-P0025","geometry":{"type":"Point","coordinates":[37.9215646993684,48.1659953890343]},"properties":{"id":"AF_tr_000001-P0025","scene_id":"AF_tr_000001","row":108,"col":95,"model_version":"af-v001","source":"af_final_model_in_sample","confidence":0.9998,"acquired_at":"2019-04-01T09:42:00Z","satellite":"SNPP","instrument":"VIIRS","frp_mw":null}},{"type":"Feature","id":"AF_tr_000001-P0026","geometry":{"type":"Point","coordinates":[37.92660712399859,48.16604259079447]},"properties":{"id":"AF_tr_000001-P0026","scene_id":"AF_tr_000001","row":108,"col":96,"model_version":"af-v001","source":"af_final_model_in_sample","confidence":0.9996,"acquired_at":"2019-04-01T09:42:00Z","satellite":"SNPP","instrument":"VIIRS","frp_mw":null}},{"type":"Feature","id":"AF_tr_000001-P0027","geometry":{"type":"Point","coordinates":[37.89642514208797,48.16238284116322]},"properties":{"id":"AF_tr_000001-P0027","scene_id":"AF_tr_000001","row":109,"col":90,"model_version":"af-v001","source":"af_final_model_in_sample","confidence":0.9998,"acquired_at":"2019-04-01T09:42:00Z","satellite":"SNPP","instrument":"VIIRS","frp_mw":null}},{"type":"Feature","id":"AF_tr_000001-P0028","geometry":{"type":"Point","coordinates":[37.90146717061829,48.16243114300815]},"properties":{"id":"AF_tr_000001-P0028","scene_id":"AF_tr_000001","row":109,"col":91,"model_version":"af-v001","source":"af_final_model_in_sample","confidence":0.9998,"acquired_at":"2019-04-01T09:42:00Z","satellite":"SNPP","instrument":"VIIRS","frp_mw":null}},{"type":"Feature","id":"AF_tr_000001-P0029","geometry":{"type":"Point","coordinates":[37.906509212390766,48.162479223728084]},"properties":{"id":"AF_tr_000001-P0029","scene_id":"AF_tr_000001","row":109,"col":92,"model_version":"af-v001","source":"af_final_model_in_sample","confidence":0.9999,"acquired_at":"2019-04-01T09:42:00Z","satellite":"SNPP","instrument":"VIIRS","frp_mw":null}},{"type":"Feature","id":"AF_tr_000001-P0030","geometry":{"type":"Point","coordinates":[37.91155126734469,48.16252708332158]},"properties":{"id":"AF_tr_000001-P0030","scene_id":"AF_tr_000001","row":109,"col":93,"model_version":"af-v001","source":"af_final_model_in_sample","confidence":0.9998,"acquired_at":"2019-04-01T09:42:00Z","satellite":"SNPP","instrument":"VIIRS","frp_mw":null}},{"type":"Feature","id":"AF_tr_000001-P0031","geometry":{"type":"Point","coordinates":[37.91659333541934,48.162574721787195]},"properties":{"id":"AF_tr_000001-P0031","scene_id":"AF_tr_000001","row":109,"col":94,"model_version":"af-v001","source":"af_final_model_in_sample","confidence":0.9999,"acquired_at":"2019-04-01T09:42:00Z","satellite":"SNPP","instrument":"VIIRS","frp_mw":null}},{"type":"Feature","id":"AF_tr_000001-P0032","geometry":{"type":"Point","coordinates":[37.90658090786534,48.159105988567184]},"properties":{"id":"AF_tr_000001-P0032","scene_id":"AF_tr_000001","row":110,"col":92,"model_version":"af-v001","source":"af_final_model_in_sample","confidence":0.9991,"acquired_at":"2019-04-01T09:42:00Z","satellite":"SNPP","instrument":"VIIRS","frp_mw":null}},{"type":"Feature","id":"AF_tr_000001-P0033","geometry":{"type":"Point","coordinates":[37.91162263239291,48.15915384252879]},"properties":{"id":"AF_tr_000001-P0033","scene_id":"AF_tr_000001","row":110,"col":93,"model_version":"af-v001","source":"af_final_model_in_sample","confidence":0.9998,"acquired_at":"2019-04-01T09:42:00Z","satellite":"SNPP","instrument":"VIIRS","frp_mw":null}},{"type":"Feature","id":"AF_tr_000001-P0034","geometry":{"type":"Point","coordinates":[37.916664370038134,48.15920147538852]},"properties":{"id":"AF_tr_000001-P0034","scene_id":"AF_tr_000001","row":110,"col":94,"model_version":"af-v001","source":"af_final_model_in_sample","confidence":0.9999,"acquired_at":"2019-04-01T09:42:00Z","satellite":"SNPP","instrument":"VIIRS","frp_mw":null}},{"type":"Feature","id":"AF_tr_000001-P0035","geometry":{"type":"Point","coordinates":[37.91673539159998,48.15582822692135]},"properties":{"id":"AF_tr_000001-P0035","scene_id":"AF_tr_000001","row":111,"col":94,"model_version":"af-v001","source":"af_final_model_in_sample","confidence":0.9998,"acquired_at":"2019-04-01T09:42:00Z","satellite":"SNPP","instrument":"VIIRS","frp_mw":null}},{"type":"Feature","id":"AF_tr_000001-P0036","geometry":{"type":"Point","coordinates":[37.92177681193037,48.15587563309867]},"properties":{"id":"AF_tr_000001-P0036","scene_id":"AF_tr_000001","row":111,"col":95,"model_version":"af-v001","source":"af_final_model_in_sample","confidence":0.9998,"acquired_at":"2019-04-01T09:42:00Z","satellite":"SNPP","instrument":"VIIRS","frp_mw":null}},{"type":"Feature","id":"AF_tr_000001-P0037","geometry":{"type":"Point","coordinates":[37.94719114899759,48.14598949073556]},"properties":{"id":"AF_tr_000001-P0037","scene_id":"AF_tr_000001","row":114,"col":100,"model_version":"af-v001","source":"af_final_model_in_sample","confidence":0.9999,"acquired_at":"2019-04-01T09:42:00Z","satellite":"SNPP","instrument":"VIIRS","frp_mw":null}},{"type":"Feature","id":"AF_tr_000001-P0038","geometry":{"type":"Point","coordinates":[37.95223165557149,48.14603555415447]},"properties":{"id":"AF_tr_000001-P0038","scene_id":"AF_tr_000001","row":114,"col":101,"model_version":"af-v001","source":"af_final_model_in_sample","confidence":0.9998,"acquired_at":"2019-04-01T09:42:00Z","satellite":"SNPP","instrument":"VIIRS","frp_mw":null}},{"type":"Feature","id":"AF_tr_000001-P0039","geometry":{"type":"Point","coordinates":[38.31063312809165,48.11163122156685]},"properties":{"id":"AF_tr_000001-P0039","scene_id":"AF_tr_000001","row":125,"col":172,"model_version":"af-v001","source":"af_final_model_in_sample","confidence":0.9998,"acquired_at":"2019-04-01T09:42:00Z","satellite":"SNPP","instrument":"VIIRS","frp_mw":null}},{"type":"Feature","id":"AF_tr_000001-P0040","geometry":{"type":"Point","coordinates":[38.31567075800636,48.11166133020953]},"properties":{"id":"AF_tr_000001-P0040","scene_id":"AF_tr_000001","row":125,"col":173,"model_version":"af-v001","source":"af_final_model_in_sample","confidence":0.9995,"acquired_at":"2019-04-01T09:42:00Z","satellite":"SNPP","instrument":"VIIRS","frp_mw":null}},{"type":"Feature","id":"AF_tr_000001-P0041","geometry":{"type":"Point","coordinates":[38.061402079423914,47.96478513304863]},"properties":{"id":"AF_tr_000001-P0041","scene_id":"AF_tr_000001","row":168,"col":122,"model_version":"af-v001","source":"af_final_model_in_sample","confidence":0.9998,"acquired_at":"2019-04-01T09:42:00Z","satellite":"SNPP","instrument":"VIIRS","frp_mw":null}},{"type":"Feature","id":"AF_tr_000001-P0042","geometry":{"type":"Point","coordinates":[38.4504898124104,47.751366946039965]},"properties":{"id":"AF_tr_000001-P0042","scene_id":"AF_tr_000001","row":232,"col":199,"model_version":"af-v001","source":"af_final_model_in_sample","confidence":0.9997,"acquired_at":"2019-04-01T09:42:00Z","satellite":"SNPP","instrument":"VIIRS","frp_mw":null}},{"type":"Feature","id":"AF_tr_000001-P0043","geometry":{"type":"Point","coordinates":[38.45052532782464,47.747993008358534]},"properties":{"id":"AF_tr_000001-P0043","scene_id":"AF_tr_000001","row":233,"col":199,"model_version":"af-v001","source":"af_final_model_in_sample","confidence":0.9997,"acquired_at":"2019-04-01T09:42:00Z","satellite":"SNPP","instrument":"VIIRS","frp_mw":null}},{"type":"Feature","id":"AF_tr_000001-P0044","geometry":{"type":"Point","coordinates":[38.410999697237294,47.70393335418934]},"properties":{"id":"AF_tr_000001-P0044","scene_id":"AF_tr_000001","row":246,"col":191,"model_version":"af-v001","source":"af_final_model_in_sample","confidence":0.9991,"acquired_at":"2019-04-01T09:42:00Z","satellite":"SNPP","instrument":"VIIRS","frp_mw":null}},{"type":"Feature","id":"AF_tr_000132-P0001","geometry":{"type":"Point","coordinates":[47.91431524534637,53.27488667609825]},"properties":{"id":"AF_tr_000132-P0001","scene_id":"AF_tr_000132","row":120,"col":59,"model_version":"af-v001","source":"af_final_model_in_sample","confidence":0.9998,"acquired_at":"2020-10-14T22:54:00Z","satellite":"SNPP","instrument":"VIIRS","frp_mw":null}},{"type":"Feature","id":"AF_tr_000132-P0002","geometry":{"type":"Point","coordinates":[47.90824154821829,53.26829083913432]},"properties":{"id":"AF_tr_000132-P0002","scene_id":"AF_tr_000132","row":122,"col":58,"model_version":"af-v001","source":"af_final_model_in_sample","confidence":0.9996,"acquired_at":"2020-10-14T22:54:00Z","satellite":"SNPP","instrument":"VIIRS","frp_mw":null}},{"type":"Feature","id":"AF_tr_000132-P0003","geometry":{"type":"Point","coordinates":[47.90239787481824,53.26506121970364]},"properties":{"id":"AF_tr_000132-P0003","scene_id":"AF_tr_000132","row":123,"col":57,"model_version":"af-v001","source":"af_final_model_in_sample","confidence":0.9996,"acquired_at":"2020-10-14T22:54:00Z","satellite":"SNPP","instrument":"VIIRS","frp_mw":null}},{"type":"Feature","id":"AF_tr_000132-P0004","geometry":{"type":"Point","coordinates":[47.908012936363626,53.26492429950595]},"properties":{"id":"AF_tr_000132-P0004","scene_id":"AF_tr_000132","row":123,"col":58,"model_version":"af-v001","source":"af_final_model_in_sample","confidence":0.9997,"acquired_at":"2020-10-14T22:54:00Z","satellite":"SNPP","instrument":"VIIRS","frp_mw":null}},{"type":"Feature","id":"AF_tr_000132-P0005","geometry":{"type":"Point","coordinates":[47.90755585043302,53.25819121246692]},"properties":{"id":"AF_tr_000132-P0005","scene_id":"AF_tr_000132","row":125,"col":58,"model_version":"af-v001","source":"af_final_model_in_sample","confidence":0.9915,"acquired_at":"2020-10-14T22:54:00Z","satellite":"SNPP","instrument":"VIIRS","frp_mw":null}},{"type":"Feature","id":"AF_tr_000132-P0006","geometry":{"type":"Point","coordinates":[47.924398120603584,53.257778967359]},"properties":{"id":"AF_tr_000132-P0006","scene_id":"AF_tr_000132","row":125,"col":61,"model_version":"af-v001","source":"af_final_model_in_sample","confidence":0.9995,"acquired_at":"2020-10-14T22:54:00Z","satellite":"SNPP","instrument":"VIIRS","frp_mw":null}},{"type":"Feature","id":"AF_tr_000132-P0007","geometry":{"type":"Point","coordinates":[47.901713633994966,53.25496153522566]},"properties":{"id":"AF_tr_000132-P0007","scene_id":"AF_tr_000132","row":126,"col":57,"model_version":"af-v001","source":"af_final_model_in_sample","confidence":0.9997,"acquired_at":"2020-10-14T22:54:00Z","satellite":"SNPP","instrument":"VIIRS","frp_mw":null}},{"type":"Feature","id":"AF_tr_000132-P0008","geometry":{"type":"Point","coordinates":[47.906870565798336,53.24809156245451]},"properties":{"id":"AF_tr_000132-P0008","scene_id":"AF_tr_000132","row":128,"col":58,"model_version":"af-v001","source":"af_final_model_in_sample","confidence":0.9991,"acquired_at":"2020-10-14T22:54:00Z","satellite":"SNPP","instrument":"VIIRS","frp_mw":null}},{"type":"Feature","id":"AF_tr_000132-P0009","geometry":{"type":"Point","coordinates":[47.92932155945476,53.24754157514694]},"properties":{"id":"AF_tr_000132-P0009","scene_id":"AF_tr_000132","row":128,"col":62,"model_version":"af-v001","source":"af_final_model_in_sample","confidence":0.9997,"acquired_at":"2020-10-14T22:54:00Z","satellite":"SNPP","instrument":"VIIRS","frp_mw":null}},{"type":"Feature","id":"AF_tr_000132-P0010","geometry":{"type":"Point","coordinates":[47.906642229340314,53.244725007263156]},"properties":{"id":"AF_tr_000132-P0010","scene_id":"AF_tr_000132","row":129,"col":58,"model_version":"af-v001","source":"af_final_model_in_sample","confidence":0.998,"acquired_at":"2020-10-14T22:54:00Z","satellite":"SNPP","instrument":"VIIRS","frp_mw":null}},{"type":"Feature","id":"AF_tr_000132-P0011","geometry":{"type":"Point","coordinates":[47.92909146558363,53.24417508693908]},"properties":{"id":"AF_tr_000132-P0011","scene_id":"AF_tr_000132","row":129,"col":62,"model_version":"af-v001","source":"af_final_model_in_sample","confidence":0.9978,"acquired_at":"2020-10-14T22:54:00Z","satellite":"SNPP","instrument":"VIIRS","frp_mw":null}},{"type":"Feature","id":"AF_tr_000132-P0012","geometry":{"type":"Point","coordinates":[47.900801954113845,53.24149525297931]},"properties":{"id":"AF_tr_000132-P0012","scene_id":"AF_tr_000132","row":130,"col":57,"model_version":"af-v001","source":"af_final_model_in_sample","confidence":0.9885,"acquired_at":"2020-10-14T22:54:00Z","satellite":"SNPP","instrument":"VIIRS","frp_mw":null}},{"type":"Feature","id":"AF_tr_000132-P0013","geometry":{"type":"Point","coordinates":[47.90641393873846,53.241358449478405]},"properties":{"id":"AF_tr_000132-P0013","scene_id":"AF_tr_000132","row":130,"col":58,"model_version":"af-v001","source":"af_final_model_in_sample","confidence":0.9932,"acquired_at":"2020-10-14T22:54:00Z","satellite":"SNPP","instrument":"VIIRS","frp_mw":null}},{"type":"Feature","id":"AF_tr_000132-P0014","geometry":{"type":"Point","coordinates":[47.92863141645192,53.23744210271188]},"properties":{"id":"AF_tr_000132-P0014","scene_id":"AF_tr_000132","row":131,"col":62,"model_version":"af-v001","source":"af_final_model_in_sample","confidence":0.9998,"acquired_at":"2020-10-14T22:54:00Z","satellite":"SNPP","instrument":"VIIRS","frp_mw":null}},{"type":"Feature","id":"AF_tr_000132-P0015","geometry":{"type":"Point","coordinates":[47.905957495053876,53.23462532612918]},"properties":{"id":"AF_tr_000132-P0015","scene_id":"AF_tr_000132","row":132,"col":58,"model_version":"af-v001","source":"af_final_model_in_sample","confidence":0.9977,"acquired_at":"2020-10-14T22:54:00Z","satellite":"SNPP","instrument":"VIIRS","frp_mw":null}},{"type":"Feature","id":"AF_tr_000266-P0001","geometry":{"type":"Point","coordinates":[37.51406518353078,49.17018443397851]},"properties":{"id":"AF_tr_000266-P0001","scene_id":"AF_tr_000266","row":65,"col":20,"model_version":"af-v001","source":"af_final_model_in_sample","confidence":0.9676,"acquired_at":"2022-08-28T10:36:00Z","satellite":"SNPP","instrument":"VIIRS","frp_mw":null}},{"type":"Feature","id":"AF_tr_000266-P0002","geometry":{"type":"Point","coordinates":[37.51920798767666,49.170250506975115]},"properties":{"id":"AF_tr_000266-P0002","scene_id":"AF_tr_000266","row":65,"col":21,"model_version":"af-v001","source":"af_final_model_in_sample","confidence":0.9982,"acquired_at":"2022-08-28T10:36:00Z","satellite":"SNPP","instrument":"VIIRS","frp_mw":null}},{"type":"Feature","id":"AF_tr_000266-P0003","geometry":{"type":"Point","coordinates":[37.77207915495967,48.930329377163375]},"properties":{"id":"AF_tr_000266-P0003","scene_id":"AF_tr_000266","row":137,"col":69,"model_version":"af-v001","source":"af_final_model_in_sample","confidence":0.9966,"acquired_at":"2022-08-28T10:36:00Z","satellite":"SNPP","instrument":"VIIRS","frp_mw":null}},{"type":"Feature","id":"AF_tr_000266-P0004","geometry":{"type":"Point","coordinates":[37.67580831640319,48.89215530583838]},"properties":{"id":"AF_tr_000266-P0004","scene_id":"AF_tr_000266","row":148,"col":50,"model_version":"af-v001","source":"af_final_model_in_sample","confidence":0.9975,"acquired_at":"2022-08-28T10:36:00Z","satellite":"SNPP","instrument":"VIIRS","frp_mw":null}},{"type":"Feature","id":"AF_tr_000266-P0005","geometry":{"type":"Point","coordinates":[37.67589738871366,48.88878278721851]},"properties":{"id":"AF_tr_000266-P0005","scene_id":"AF_tr_000266","row":149,"col":50,"model_version":"af-v001","source":"af_final_model_in_sample","confidence":0.9961,"acquired_at":"2022-08-28T10:36:00Z","satellite":"SNPP","instrument":"VIIRS","frp_mw":null}},{"type":"Feature","id":"AF_tr_000266-P0006","geometry":{"type":"Point","coordinates":[37.70181798743912,48.87558338125188]},"properties":{"id":"AF_tr_000266-P0006","scene_id":"AF_tr_000266","row":153,"col":55,"model_version":"af-v001","source":"af_final_model_in_sample","confidence":0.7783,"acquired_at":"2022-08-28T10:36:00Z","satellite":"SNPP","instrument":"VIIRS","frp_mw":null}},{"type":"Feature","id":"AF_tr_000266-P0007","geometry":{"type":"Point","coordinates":[38.055661268613015,48.82504840674542]},"properties":{"id":"AF_tr_000266-P0007","scene_id":"AF_tr_000266","row":169,"col":124,"model_version":"af-v001","source":"af_final_model_in_sample","confidence":0.9989,"acquired_at":"2022-08-28T10:36:00Z","satellite":"SNPP","instrument":"VIIRS","frp_mw":null}},{"type":"Feature","id":"AF_tr_000266-P0008","geometry":{"type":"Point","coordinates":[37.903591341514336,48.76972538679164]},"properties":{"id":"AF_tr_000266-P0008","scene_id":"AF_tr_000266","row":185,"col":94,"model_version":"af-v001","source":"af_final_model_in_sample","confidence":0.9994,"acquired_at":"2022-08-28T10:36:00Z","satellite":"SNPP","instrument":"VIIRS","frp_mw":null}},{"type":"Feature","id":"AF_tr_000266-P0009","geometry":{"type":"Point","coordinates":[37.90366477715163,48.76635251256953]},"properties":{"id":"AF_tr_000266-P0009","scene_id":"AF_tr_000266","row":186,"col":94,"model_version":"af-v001","source":"af_final_model_in_sample","confidence":0.9989,"acquired_at":"2022-08-28T10:36:00Z","satellite":"SNPP","instrument":"VIIRS","frp_mw":null}},{"type":"Feature","id":"AF_tr_000266-P0010","geometry":{"type":"Point","coordinates":[38.00067615699486,48.763861044308484]},"properties":{"id":"AF_tr_000266-P0010","scene_id":"AF_tr_000266","row":187,"col":113,"model_version":"af-v001","source":"af_final_model_in_sample","confidence":0.9963,"acquired_at":"2022-08-28T10:36:00Z","satellite":"SNPP","instrument":"VIIRS","frp_mw":null}},{"type":"Feature","id":"AF_tr_000266-P0011","geometry":{"type":"Point","coordinates":[38.005778282744565,48.76390517587789]},"properties":{"id":"AF_tr_000266-P0011","scene_id":"AF_tr_000266","row":187,"col":114,"model_version":"af-v001","source":"af_final_model_in_sample","confidence":0.9999,"acquired_at":"2022-08-28T10:36:00Z","satellite":"SNPP","instrument":"VIIRS","frp_mw":null}},{"type":"Feature","id":"AF_tr_000266-P0012","geometry":{"type":"Point","coordinates":[37.995641305136104,48.760443709797]},"properties":{"id":"AF_tr_000266-P0012","scene_id":"AF_tr_000266","row":188,"col":112,"model_version":"af-v001","source":"af_final_model_in_sample","confidence":0.9964,"acquired_at":"2022-08-28T10:36:00Z","satellite":"SNPP","instrument":"VIIRS","frp_mw":null}},{"type":"Feature","id":"AF_tr_000266-P0013","geometry":{"type":"Point","coordinates":[38.000743076944374,48.76048806197453]},"properties":{"id":"AF_tr_000266-P0013","scene_id":"AF_tr_000266","row":188,"col":113,"model_version":"af-v001","source":"af_final_model_in_sample","confidence":0.9963,"acquired_at":"2022-08-28T10:36:00Z","satellite":"SNPP","instrument":"VIIRS","frp_mw":null}},{"type":"Feature","id":"AF_tr_000266-P0014","geometry":{"type":"Point","coordinates":[38.005844861166594,48.76053218833771]},"properties":{"id":"AF_tr_000266-P0014","scene_id":"AF_tr_000266","row":188,"col":114,"model_version":"af-v001","source":"af_final_model_in_sample","confidence":0.9999,"acquired_at":"2022-08-28T10:36:00Z","satellite":"SNPP","instrument":"VIIRS","frp_mw":null}},{"type":"Feature","id":"AF_tr_000266-P0015","geometry":{"type":"Point","coordinates":[38.00591142723799,48.75715919874532]},"properties":{"id":"AF_tr_000266-P0015","scene_id":"AF_tr_000266","row":189,"col":114,"model_version":"af-v001","source":"af_final_model_in_sample","confidence":0.9995,"acquired_at":"2022-08-28T10:36:00Z","satellite":"SNPP","instrument":"VIIRS","frp_mw":null}},{"type":"Feature","id":"AF_tr_000266-P0016","geometry":{"type":"Point","coordinates":[38.099065839125636,48.68370651989895]},"properties":{"id":"AF_tr_000266-P0016","scene_id":"AF_tr_000266","row":211,"col":132,"model_version":"af-v001","source":"af_final_model_in_sample","confidence":0.9984,"acquired_at":"2022-08-28T10:36:00Z","satellite":"SNPP","instrument":"VIIRS","frp_mw":null}},{"type":"Feature","id":"AF_tr_000266-P0017","geometry":{"type":"Point","coordinates":[38.30881186299741,48.62105768784673]},"properties":{"id":"AF_tr_000266-P0017","scene_id":"AF_tr_000266","row":230,"col":173,"model_version":"af-v001","source":"af_final_model_in_sample","confidence":0.9997,"acquired_at":"2022-08-28T10:36:00Z","satellite":"SNPP","instrument":"VIIRS","frp_mw":null}},{"type":"Feature","id":"AF_tr_000266-P0018","geometry":{"type":"Point","coordinates":[38.31389998273883,48.621088112035686]},"properties":{"id":"AF_tr_000266-P0018","scene_id":"AF_tr_000266","row":230,"col":174,"model_version":"af-v001","source":"af_final_model_in_sample","confidence":0.9996,"acquired_at":"2022-08-28T10:36:00Z","satellite":"SNPP","instrument":"VIIRS","frp_mw":null}},{"type":"Feature","id":"AF_tr_000266-P0019","geometry":{"type":"Point","coordinates":[38.313945698880154,48.617714774114035]},"properties":{"id":"AF_tr_000266-P0019","scene_id":"AF_tr_000266","row":231,"col":174,"model_version":"af-v001","source":"af_final_model_in_sample","confidence":0.9968,"acquired_at":"2022-08-28T10:36:00Z","satellite":"SNPP","instrument":"VIIRS","frp_mw":null}},{"type":"Feature","id":"AF_tr_000266-P0020","geometry":{"type":"Point","coordinates":[38.31399140655893,48.61434143417424]},"properties":{"id":"AF_tr_000266-P0020","scene_id":"AF_tr_000266","row":232,"col":174,"model_version":"af-v001","source":"af_final_model_in_sample","confidence":0.9976,"acquired_at":"2022-08-28T10:36:00Z","satellite":"SNPP","instrument":"VIIRS","frp_mw":null}},{"type":"Feature","id":"AF_tr_000266-P0021","geometry":{"type":"Point","coordinates":[38.54332950045364,48.57162226405032]},"properties":{"id":"AF_tr_000266-P0021","scene_id":"AF_tr_000266","row":245,"col":219,"model_version":"af-v001","source":"af_final_model_in_sample","confidence":0.9998,"acquired_at":"2022-08-28T10:36:00Z","satellite":"SNPP","instrument":"VIIRS","frp_mw":null}},{"type":"Feature","id":"AF_tr_000266-P0022","geometry":{"type":"Point","coordinates":[38.548412865557395,48.57164231257671]},"properties":{"id":"AF_tr_000266-P0022","scene_id":"AF_tr_000266","row":245,"col":220,"model_version":"af-v001","source":"af_final_model_in_sample","confidence":0.9998,"acquired_at":"2022-08-28T10:36:00Z","satellite":"SNPP","instrument":"VIIRS","frp_mw":null}}]}