{
  "type": "FeatureCollection",
  "features": [
    {
      "type": "Feature",
      "id": "AF-DEMO-001",
      "geometry": {"type": "Point", "coordinates": [99.055, 58.055]},
      "properties": {
        "id": "AF-DEMO-001",
        "acquired_at": "2024-08-12T04:12:00Z",
        "source": "Synthetic CI fixture",
        "satellite": "TEST-SAT",
        "instrument": "TEST-SENSOR",
        "frp_mw": 14.2
      }
    },
    {
      "type": "Feature",
      "id": "AF-DEMO-002",
      "geometry": {"type": "Point", "coordinates": [99.105, 58.065]},
      "properties": {
        "id": "AF-DEMO-002",
        "acquired_at": "2024-08-15T05:31:00Z",
        "source": "Synthetic CI fixture",
        "satellite": "TEST-SAT",
        "instrument": "TEST-SENSOR",
        "frp_mw": 22.8
      }
    },
    {
      "type": "Feature",
      "id": "AF-DEMO-003",
      "geometry": {"type": "Point", "coordinates": [99.16, 58.16]},
      "properties": {
        "id": "AF-DEMO-003",
        "acquired_at": "2024-08-20T00:00:00Z",
        "source": "Synthetic CI fixture",
        "satellite": "TEST-SAT",
        "instrument": "TEST-SENSOR",
        "frp_mw": 8.1
      }
    },
    {
      "type": "Feature",
      "id": "AF-DEMO-RIGHT-BOUNDARY",
      "geometry": {"type": "Point", "coordinates": [99.07, 58.07]},
      "properties": {
        "id": "AF-DEMO-RIGHT-BOUNDARY",
        "acquired_at": "2024-08-21T00:00:00Z",
        "source": "Synthetic CI fixture",
        "satellite": "TEST-SAT",
        "instrument": "TEST-SENSOR",
        "frp_mw": 5.0
      }
    }
  ]
}
